{
  "links" : {
    "next" : "https://api.nasa.gov/neo/rest/v1/feed?start_date=2004-07-16&end_date=2004-07-16&detailed=true&api_key=t0TVs3DtDT2H8Oy2Zy8m2eVrNsAVKAexjcZXUckd",
    "prev" : "https://api.nasa.gov/neo/rest/v1/feed?start_date=2004-07-14&end_date=2004-07-14&detailed=true&api_key=t0TVs3DtDT2H8Oy2Zy8m2eVrNsAVKAexjcZXUckd",
    "self" : "https://api.nasa.gov/neo/rest/v1/feed?start_date=2004-07-15&end_date=2004-07-15&detailed=true&api_key=t0TVs3DtDT2H8Oy2Zy8m2eVrNsAVKAexjcZXUckd"
  },
  "element_count" : 4,
  "near_earth_objects" : {
    "2004-07-15" : [ {
      "links" : {
        "self" : "https://api.nasa.gov/neo/rest/v1/neo/2267136?api_key=t0TVs3DtDT2H8Oy2Zy8m2eVrNsAVKAexjcZXUckd"
      },
      "neo_reference_id" : "2267136",
      "name" : "267136 (2000 EF104)",
      "nasa_jpl_url" : "http://ssd.jpl.nasa.gov/sbdb.cgi?sstr=2267136",
      "absolute_magnitude_h" : 18.9,
      "estimated_diameter" : {
        "kilometers" : {
          "estimated_diameter_min" : 0.4411182,
          "estimated_diameter_max" : 0.9863702813
        },
        "meters" : {
          "estimated_diameter_min" : 441.1181999969,
          "estimated_diameter_max" : 986.3702813054
        },
        "miles" : {
          "estimated_diameter_min" : 0.2740980571,
          "estimated_diameter_max" : 0.6129018881
        },
        "feet" : {
          "estimated_diameter_min" : 1447.2382352778,
          "estimated_diameter_max" : 3236.1230737181
        }
      },
      "is_potentially_hazardous_asteroid" : false,
      "close_approach_data" : [ {
        "close_approach_date" : "2004-07-15",
        "epoch_date_close_approach" : 1089874800000,
        "relative_velocity" : {
          "kilometers_per_second" : "8.6883061734",
          "kilometers_per_hour" : "31277.902224357",
          "miles_per_hour" : "19434.8720793511"
        },
        "miss_distance" : {
          "astronomical" : "0.353849273",
          "lunar" : "137.6473693848",
          "kilometers" : "52935096",
          "miles" : "32892344"
        },
        "orbiting_body" : "Earth"
      } ],
      "orbital_data" : {
        "orbit_id" : "76",
        "orbit_determination_date" : "2017-04-06 09:24:38",
        "orbit_uncertainty" : "0",
        "minimum_orbit_intersection" : ".176189",
        "jupiter_tisserand_invariant" : "5.372",
        "epoch_osculation" : "2458000.5",
        "eccentricity" : ".41783883791717",
        "semi_major_axis" : "1.147657204761602",
        "inclination" : "10.81721849535224",
        "ascending_node_longitude" : "66.3692968893138",
        "orbital_period" : "449.0727556006076",
        "perihelion_distance" : ".6681214519967467",
        "perihelion_argument" : "346.7797571549002",
        "aphelion_distance" : "1.627192957526458",
        "perihelion_time" : "2457797.155445202524",
        "mean_anomaly" : "163.0115361355768",
        "mean_motion" : ".8016518381715716",
        "equinox" : "J2000"
      }
    }, {
      "links" : {
        "self" : "https://api.nasa.gov/neo/rest/v1/neo/2409266?api_key=t0TVs3DtDT2H8Oy2Zy8m2eVrNsAVKAexjcZXUckd"
      },
      "neo_reference_id" : "2409266",
      "name" : "409266 (2004 RK9)",
      "nasa_jpl_url" : "http://ssd.jpl.nasa.gov/sbdb.cgi?sstr=2409266",
      "absolute_magnitude_h" : 21.2,
      "estimated_diameter" : {
        "kilometers" : {
          "estimated_diameter_min" : 0.1529519353,
          "estimated_diameter_max" : 0.3420109247
        },
        "meters" : {
          "estimated_diameter_min" : 152.9519353442,
          "estimated_diameter_max" : 342.0109247198
        },
        "miles" : {
          "estimated_diameter_min" : 0.095039897,
          "estimated_diameter_max" : 0.2125156703
        },
        "feet" : {
          "estimated_diameter_min" : 501.8108275547,
          "estimated_diameter_max" : 1122.0831222578
        }
      },
      "is_potentially_hazardous_asteroid" : false,
      "close_approach_data" : [ {
        "close_approach_date" : "2004-07-15",
        "epoch_date_close_approach" : 1089874800000,
        "relative_velocity" : {
          "kilometers_per_second" : "5.8041232343",
          "kilometers_per_hour" : "20894.8436433438",
          "miles_per_hour" : "12983.243262721"
        },
        "miss_distance" : {
          "astronomical" : "0.1111263414",
          "lunar" : "43.2281455994",
          "kilometers" : "16624264",
          "miles" : "10329839"
        },
        "orbiting_body" : "Earth"
      } ],
      "orbital_data" : {
        "orbit_id" : "34",
        "orbit_determination_date" : "2017-04-06 09:21:42",
        "orbit_uncertainty" : "0",
        "minimum_orbit_intersection" : ".110048",
        "jupiter_tisserand_invariant" : "3.902",
        "epoch_osculation" : "2458000.5",
        "eccentricity" : ".425829580237323",
        "semi_major_axis" : "1.836766068043727",
        "inclination" : "6.226677206550188",
        "ascending_node_longitude" : "354.8302625301969",
        "orbital_period" : "909.2413926436791",
        "perihelion_distance" : "1.054616744294509",
        "perihelion_argument" : "284.2458293284436",
        "aphelion_distance" : "2.618915391792946",
        "perihelion_time" : "2457738.467404307341",
        "mean_anomaly" : "103.747734333873",
        "mean_motion" : ".3959344602133393",
        "equinox" : "J2000"
      }
    }, {
      "links" : {
        "self" : "https://api.nasa.gov/neo/rest/v1/neo/3249141?api_key=t0TVs3DtDT2H8Oy2Zy8m2eVrNsAVKAexjcZXUckd"
      },
      "neo_reference_id" : "3249141",
      "name" : "(2004 PJ2)",
      "nasa_jpl_url" : "http://ssd.jpl.nasa.gov/sbdb.cgi?sstr=3249141",
      "absolute_magnitude_h" : 21.4,
      "estimated_diameter" : {
        "kilometers" : {
          "estimated_diameter_min" : 0.1394938229,
          "estimated_diameter_max" : 0.3119176705
        },
        "meters" : {
          "estimated_diameter_min" : 139.4938229344,
          "estimated_diameter_max" : 311.9176705226
        },
        "miles" : {
          "estimated_diameter_min" : 0.0866774163,
          "estimated_diameter_max" : 0.1938165949
        },
        "feet" : {
          "estimated_diameter_min" : 457.6569140361,
          "estimated_diameter_max" : 1023.3519701574
        }
      },
      "is_potentially_hazardous_asteroid" : true,
      "close_approach_data" : [ {
        "close_approach_date" : "2004-07-15",
        "epoch_date_close_approach" : 1089874800000,
        "relative_velocity" : {
          "kilometers_per_second" : "9.0167708288",
          "kilometers_per_hour" : "32460.3749836546",
          "miles_per_hour" : "20169.6146669269"
        },
        "miss_distance" : {
          "astronomical" : "0.0492714546",
          "lunar" : "19.166595459",
          "kilometers" : "7370904.5",
          "miles" : "4580067.5"
        },
        "orbiting_body" : "Earth"
      } ],
      "orbital_data" : {
        "orbit_id" : "25",
        "orbit_determination_date" : "2017-04-06 09:12:32",
        "orbit_uncertainty" : "0",
        "minimum_orbit_intersection" : ".0232584",
        "jupiter_tisserand_invariant" : "4.649",
        "epoch_osculation" : "2458000.5",
        "eccentricity" : ".3420472127755808",
        "semi_major_axis" : "1.418251361187888",
        "inclination" : "2.577362651119874",
        "ascending_node_longitude" : "317.1984175092555",
        "orbital_period" : "616.9191342583106",
        "perihelion_distance" : ".9331424360783972",
        "perihelion_argument" : "281.6296875842709",
        "aphelion_distance" : "1.903360286297378",
        "perihelion_time" : "2458091.811598519671",
        "mean_anomaly" : "306.7155845204863",
        "mean_motion" : ".5835448764817598",
        "equinox" : "J2000"
      }
    }, {
      "links" : {
        "self" : "https://api.nasa.gov/neo/rest/v1/neo/3746629?api_key=t0TVs3DtDT2H8Oy2Zy8m2eVrNsAVKAexjcZXUckd"
      },
      "neo_reference_id" : "3746629",
      "name" : "(2016 EN156)",
      "nasa_jpl_url" : "http://ssd.jpl.nasa.gov/sbdb.cgi?sstr=3746629",
      "absolute_magnitude_h" : 27.8,
      "estimated_diameter" : {
        "kilometers" : {
          "estimated_diameter_min" : 0.0073207399,
          "estimated_diameter_max" : 0.016369672
        },
        "meters" : {
          "estimated_diameter_min" : 7.3207398935,
          "estimated_diameter_max" : 16.3696720474
        },
        "miles" : {
          "estimated_diameter_min" : 0.0045488955,
          "estimated_diameter_max" : 0.0101716395
        },
        "feet" : {
          "estimated_diameter_min" : 24.0181762721,
          "estimated_diameter_max" : 53.70627484
        }
      },
      "is_potentially_hazardous_asteroid" : false,
      "close_approach_data" : [ {
        "close_approach_date" : "2004-07-15",
        "epoch_date_close_approach" : 1089874800000,
        "relative_velocity" : {
          "kilometers_per_second" : "8.9359351243",
          "kilometers_per_hour" : "32169.3664474938",
          "miles_per_hour" : "19988.7932795552"
        },
        "miss_distance" : {
          "astronomical" : "0.0789913844",
          "lunar" : "30.7276477814",
          "kilometers" : "11816943",
          "miles" : "7342708"
        },
        "orbiting_body" : "Earth"
      } ],
      "orbital_data" : {
        "orbit_id" : "9",
        "orbit_determination_date" : "2017-04-06 08:27:29",
        "orbit_uncertainty" : "6",
        "minimum_orbit_intersection" : ".00229906",
        "jupiter_tisserand_invariant" : "4.988",
        "epoch_osculation" : "2458000.5",
        "eccentricity" : ".2969169445501015",
        "semi_major_axis" : "1.288215731785637",
        "inclination" : "3.648952368735195",
        "ascending_node_longitude" : "177.7237952656623",
        "orbital_period" : "534.0492685781778",
        "perihelion_distance" : ".9057226527824725",
        "perihelion_argument" : "54.57036918965708",
        "aphelion_distance" : "1.670708810788801",
        "perihelion_time" : "2458044.555019828794",
        "mean_anomaly" : "330.3027265993828",
        "mean_motion" : ".6740951091618258",
        "equinox" : "J2000"
      }
    } ]
  }
}